[{"OBJECT_NAME":"GLOBAL-2","OBJECT_ID":"2018-099BG","EPOCH":"2026-03-09T16:47:21.463008","MEAN_MOTION":15.08046936,"ECCENTRICITY":0.00074537,"INCLINATION":97.3697,"RA_OF_ASC_NODE":109.328,"ARG_OF_PERICENTER":127.1924,"MEAN_ANOMALY":232.9986,"EPHEMERIS_TYPE":0,"CLASSIFICATION_TYPE":"U","NORAD_CAT_ID":43812,"ELEMENT_SET_NO":999,"REV_AT_EPOCH":39691,"BSTAR":0.0002614533,"MEAN_MOTION_DOT":3.97e-5,"MEAN_MOTION_DDOT":0},{"OBJECT_NAME":"STARLINK-4534","OBJECT_ID":"2022-097H","EPOCH":"2026-03-09T10:29:46.464576","MEAN_MOTION":15.08838595,"ECCENTRICITY":0.00014401,"INCLINATION":53.2161,"RA_OF_ASC_NODE":125.2613,"ARG_OF_PERICENTER":92.6847,"MEAN_ANOMALY":267.431,"EPHEMERIS_TYPE":0,"CLASSIFICATION_TYPE":"U","NORAD_CAT_ID":53395,"ELEMENT_SET_NO":999,"REV_AT_EPOCH":19847,"BSTAR":1.7838296e-5,"MEAN_MOTION_DOT":-4.0e-8,"MEAN_MOTION_DDOT":0}]
