GLOBAL-2                
1 43812U 18099BG  26068.69955396  .00003970  00000+0  26145-3 0  9998
2 43812  97.3697 109.3280 0007454 127.1924 232.9986 15.08046936396919
STARLINK-4534           
1 53395U 22097H   26068.43734334 -.00000004  00000+0  17838-4 0  9993
2 53395  53.2161 125.2613 0001440  92.6847 267.4310 15.08838595198474
